[{"OBJECT_NAME":"HULIANWANG DIGUI-49","OBJECT_ID":"2025-168A","EPOCH":"2026-03-03T03:47:43.365120","MEAN_MOTION":13.29338404,"ECCENTRICITY":0.0007396,"INCLINATION":50.005,"RA_OF_ASC_NODE":346.2506,"ARG_OF_PERICENTER":146.5798,"MEAN_ANOMALY":213.5542,"EPHEMERIS_TYPE":0,"CLASSIFICATION_TYPE":"U","NORAD_CAT_ID":65106,"ELEMENT_SET_NO":999,"REV_AT_EPOCH":2858,"BSTAR":0.00019038,"MEAN_MOTION_DOT":-3.6e-7,"MEAN_MOTION_DDOT":0},{"OBJECT_NAME":"HULIANWANG DIGUI-50","OBJECT_ID":"2025-168B","EPOCH":"2026-03-03T03:35:37.527360","MEAN_MOTION":13.29338971,"ECCENTRICITY":0.000835,"INCLINATION":50.002,"RA_OF_ASC_NODE":346.1504,"ARG_OF_PERICENTER":132.5674,"MEAN_ANOMALY":227.5904,"EPHEMERIS_TYPE":0,"CLASSIFICATION_TYPE":"U","NORAD_CAT_ID":65107,"ELEMENT_SET_NO":999,"REV_AT_EPOCH":2858,"BSTAR":0.00016333,"MEAN_MOTION_DOT":-4.8e-7,"MEAN_MOTION_DDOT":0},{"OBJECT_NAME":"HULIANWANG DIGUI-51","OBJECT_ID":"2025-168C","EPOCH":"2026-03-03T03:23:34.800864","MEAN_MOTION":13.29339239,"ECCENTRICITY":0.0009702,"INCLINATION":50.0057,"RA_OF_ASC_NODE":346.176,"ARG_OF_PERICENTER":132.4437,"MEAN_ANOMALY":227.7257,"EPHEMERIS_TYPE":0,"CLASSIFICATION_TYPE":"U","NORAD_CAT_ID":65108,"ELEMENT_SET_NO":999,"REV_AT_EPOCH":2858,"BSTAR":0.00015363,"MEAN_MOTION_DOT":-5.3e-7,"MEAN_MOTION_DDOT":0},{"OBJECT_NAME":"HULIANWANG DIGUI-52","OBJECT_ID":"2025-168D","EPOCH":"2026-03-03T03:11:42.743040","MEAN_MOTION":13.29337917,"ECCENTRICITY":0.0009597,"INCLINATION":50.0051,"RA_OF_ASC_NODE":346.1155,"ARG_OF_PERICENTER":145.4861,"MEAN_ANOMALY":214.6635,"EPHEMERIS_TYPE":0,"CLASSIFICATION_TYPE":"U","NORAD_CAT_ID":65109,"ELEMENT_SET_NO":999,"REV_AT_EPOCH":2858,"BSTAR":0.00014982,"MEAN_MOTION_DOT":-5.5e-7,"MEAN_MOTION_DDOT":0},{"OBJECT_NAME":"HULIANWANG DIGUI-53","OBJECT_ID":"2025-168E","EPOCH":"2026-03-03T02:59:40.783776","MEAN_MOTION":13.29337859,"ECCENTRICITY":0.0008388,"INCLINATION":50.0058,"RA_OF_ASC_NODE":346.0939,"ARG_OF_PERICENTER":135.1048,"MEAN_ANOMALY":225.0504,"EPHEMERIS_TYPE":0,"CLASSIFICATION_TYPE":"U","NORAD_CAT_ID":65110,"ELEMENT_SET_NO":999,"REV_AT_EPOCH":2858,"BSTAR":0.00015138,"MEAN_MOTION_DOT":-5.4e-7,"MEAN_MOTION_DDOT":0},{"OBJECT_NAME":"HULIANWANG DIGUI-54","OBJECT_ID":"2025-168F","EPOCH":"2026-03-03T04:12:06.524064","MEAN_MOTION":13.29335036,"ECCENTRICITY":0.0009985,"INCLINATION":50.0009,"RA_OF_ASC_NODE":345.6048,"ARG_OF_PERICENTER":140.5129,"MEAN_ANOMALY":219.6473,"EPHEMERIS_TYPE":0,"CLASSIFICATION_TYPE":"U","NORAD_CAT_ID":65111,"ELEMENT_SET_NO":999,"REV_AT_EPOCH":2859,"BSTAR":0.00014506,"MEAN_MOTION_DOT":-5.7e-7,"MEAN_MOTION_DDOT":0},{"OBJECT_NAME":"HULIANWANG DIGUI-55","OBJECT_ID":"2025-168G","EPOCH":"2026-03-03T02:47:32.832672","MEAN_MOTION":13.29338586,"ECCENTRICITY":0.0011257,"INCLINATION":50.0015,"RA_OF_ASC_NODE":345.9682,"ARG_OF_PERICENTER":136.1345,"MEAN_ANOMALY":224.0423,"EPHEMERIS_TYPE":0,"CLASSIFICATION_TYPE":"U","NORAD_CAT_ID":65112,"ELEMENT_SET_NO":999,"REV_AT_EPOCH":2858,"BSTAR":0.00013543,"MEAN_MOTION_DOT":-6.1e-7,"MEAN_MOTION_DDOT":0},{"OBJECT_NAME":"HULIANWANG DIGUI-56","OBJECT_ID":"2025-168H","EPOCH":"2026-03-03T04:23:48.157728","MEAN_MOTION":13.29337976,"ECCENTRICITY":0.0010984,"INCLINATION":50.0006,"RA_OF_ASC_NODE":345.6397,"ARG_OF_PERICENTER":158.3516,"MEAN_ANOMALY":201.7822,"EPHEMERIS_TYPE":0,"CLASSIFICATION_TYPE":"U","NORAD_CAT_ID":65113,"ELEMENT_SET_NO":999,"REV_AT_EPOCH":2859,"BSTAR":0.00013867,"MEAN_MOTION_DOT":-6.0e-7,"MEAN_MOTION_DDOT":0},{"OBJECT_NAME":"HULIANWANG DIGUI-57","OBJECT_ID":"2025-168J","EPOCH":"2026-03-03T04:00:06.833664","MEAN_MOTION":13.29334826,"ECCENTRICITY":0.0008732,"INCLINATION":50.0034,"RA_OF_ASC_NODE":345.6086,"ARG_OF_PERICENTER":148.8193,"MEAN_ANOMALY":211.3199,"EPHEMERIS_TYPE":0,"CLASSIFICATION_TYPE":"U","NORAD_CAT_ID":65114,"ELEMENT_SET_NO":999,"REV_AT_EPOCH":2860,"BSTAR":0.00015341,"MEAN_MOTION_DOT":-5.3e-7,"MEAN_MOTION_DDOT":0},{"OBJECT_NAME":"HULIANWANG DIGUI-58","OBJECT_ID":"2025-174A","EPOCH":"2026-03-03T02:54:36.093312","MEAN_MOTION":13.24420896,"ECCENTRICITY":0.0001242,"INCLINATION":86.4931,"RA_OF_ASC_NODE":287.8518,"ARG_OF_PERICENTER":85.303,"MEAN_ANOMALY":274.8246,"EPHEMERIS_TYPE":0,"CLASSIFICATION_TYPE":"U","NORAD_CAT_ID":65164,"ELEMENT_SET_NO":999,"REV_AT_EPOCH":2675,"BSTAR":0.0001687,"MEAN_MOTION_DOT":8.7e-7,"MEAN_MOTION_DDOT":0},{"OBJECT_NAME":"HULIANWANG DIGUI-59","OBJECT_ID":"2025-174B","EPOCH":"2026-03-03T03:05:28.505760","MEAN_MOTION":13.24421065,"ECCENTRICITY":0.0001227,"INCLINATION":86.4892,"RA_OF_ASC_NODE":287.7796,"ARG_OF_PERICENTER":84.5056,"MEAN_ANOMALY":275.6218,"EPHEMERIS_TYPE":0,"CLASSIFICATION_TYPE":"U","NORAD_CAT_ID":65165,"ELEMENT_SET_NO":999,"REV_AT_EPOCH":2675,"BSTAR":0.0001377,"MEAN_MOTION_DOT":7.4e-7,"MEAN_MOTION_DDOT":0},{"OBJECT_NAME":"HULIANWANG DIGUI-60","OBJECT_ID":"2025-174C","EPOCH":"2026-03-03T03:16:18.923232","MEAN_MOTION":13.24421267,"ECCENTRICITY":0.0001197,"INCLINATION":86.4924,"RA_OF_ASC_NODE":287.8458,"ARG_OF_PERICENTER":86.6446,"MEAN_ANOMALY":273.4825,"EPHEMERIS_TYPE":0,"CLASSIFICATION_TYPE":"U","NORAD_CAT_ID":65166,"ELEMENT_SET_NO":999,"REV_AT_EPOCH":2675,"BSTAR":0.00010675,"MEAN_MOTION_DOT":6.0e-7,"MEAN_MOTION_DDOT":0},{"OBJECT_NAME":"HULIANWANG DIGUI-61","OBJECT_ID":"2025-174D","EPOCH":"2026-03-03T03:27:16.366752","MEAN_MOTION":13.24419808,"ECCENTRICITY":0.000115,"INCLINATION":86.4932,"RA_OF_ASC_NODE":287.8657,"ARG_OF_PERICENTER":85.2423,"MEAN_ANOMALY":274.8843,"EPHEMERIS_TYPE":0,"CLASSIFICATION_TYPE":"U","NORAD_CAT_ID":65167,"ELEMENT_SET_NO":999,"REV_AT_EPOCH":2675,"BSTAR":8.5547e-5,"MEAN_MOTION_DOT":5.1e-7,"MEAN_MOTION_DDOT":0},{"OBJECT_NAME":"HULIANWANG DIGUI-62","OBJECT_ID":"2025-174E","EPOCH":"2026-03-03T03:38:05.279136","MEAN_MOTION":13.24421133,"ECCENTRICITY":0.000115,"INCLINATION":86.4873,"RA_OF_ASC_NODE":287.7537,"ARG_OF_PERICENTER":87.9782,"MEAN_ANOMALY":272.1484,"EPHEMERIS_TYPE":0,"CLASSIFICATION_TYPE":"U","NORAD_CAT_ID":65168,"ELEMENT_SET_NO":999,"REV_AT_EPOCH":2675,"BSTAR":9.0001e-5,"MEAN_MOTION_DOT":5.3e-7,"MEAN_MOTION_DDOT":0},{"OBJECT_NAME":"HULIANWANG DIGUI-63","OBJECT_ID":"2025-174F","EPOCH":"2026-03-03T03:48:56.779200","MEAN_MOTION":13.24421485,"ECCENTRICITY":0.0001175,"INCLINATION":86.4926,"RA_OF_ASC_NODE":287.8595,"ARG_OF_PERICENTER":85.6741,"MEAN_ANOMALY":274.4527,"EPHEMERIS_TYPE":0,"CLASSIFICATION_TYPE":"U","NORAD_CAT_ID":65169,"ELEMENT_SET_NO":999,"REV_AT_EPOCH":2675,"BSTAR":9.7579e-5,"MEAN_MOTION_DOT":5.7e-7,"MEAN_MOTION_DDOT":0},{"OBJECT_NAME":"HULIANWANG DIGUI-64","OBJECT_ID":"2025-174G","EPOCH":"2026-03-03T03:59:49.702272","MEAN_MOTION":13.24421479,"ECCENTRICITY":0.0001158,"INCLINATION":86.4884,"RA_OF_ASC_NODE":287.7832,"ARG_OF_PERICENTER":88.0348,"MEAN_ANOMALY":272.0919,"EPHEMERIS_TYPE":0,"CLASSIFICATION_TYPE":"U","NORAD_CAT_ID":65170,"ELEMENT_SET_NO":999,"REV_AT_EPOCH":2675,"BSTAR":0.00011459,"MEAN_MOTION_DOT":6.4e-7,"MEAN_MOTION_DDOT":0}]
