HULIANWANG DIGUI-49     
1 65106U 25168A   26062.15814080 -.00000036  00000+0  19038-3 0  9996
2 65106  50.0050 346.2506 0007396 146.5798 213.5542 13.29338404 28583
HULIANWANG DIGUI-50     
1 65107U 25168B   26062.14973990 -.00000048  00000+0  16333-3 0  9990
2 65107  50.0020 346.1504 0008350 132.5674 227.5904 13.29338971 28583
HULIANWANG DIGUI-51     
1 65108U 25168C   26062.14137501 -.00000053  00000+0  15363-3 0  9999
2 65108  50.0057 346.1760 0009702 132.4437 227.7257 13.29339239 28587
HULIANWANG DIGUI-52     
1 65109U 25168D   26062.13313360 -.00000055  00000+0  14982-3 0  9996
2 65109  50.0051 346.1155 0009597 145.4861 214.6635 13.29337917 28583
HULIANWANG DIGUI-53     
1 65110U 25168E   26062.12477759 -.00000054  00000+0  15138-3 0  9993
2 65110  50.0058 346.0939 0008388 135.1048 225.0504 13.29337859 28587
HULIANWANG DIGUI-54     
1 65111U 25168F   26062.17507551 -.00000057  00000+0  14506-3 0  9994
2 65111  50.0009 345.6048 0009985 140.5129 219.6473 13.29335036 28594
HULIANWANG DIGUI-55     
1 65112U 25168G   26062.11635223 -.00000061  00000+0  13543-3 0  9992
2 65112  50.0015 345.9682 0011257 136.1345 224.0423 13.29338586 28582
HULIANWANG DIGUI-56     
1 65113U 25168H   26062.18319627 -.00000060  00000+0  13867-3 0  9995
2 65113  50.0006 345.6397 0010984 158.3516 201.7822 13.29337976 28593
HULIANWANG DIGUI-57     
1 65114U 25168J   26062.16674576 -.00000053  00000+0  15341-3 0  9992
2 65114  50.0034 345.6086 0008732 148.8193 211.3199 13.29334826 28600
HULIANWANG DIGUI-58     
1 65164U 25174A   26062.12125108  .00000087  00000+0  16870-3 0  9996
2 65164  86.4931 287.8518 0001242  85.3030 274.8246 13.24420896 26754
HULIANWANG DIGUI-59     
1 65165U 25174B   26062.12880215  .00000074  00000+0  13770-3 0  9996
2 65165  86.4892 287.7796 0001227  84.5056 275.6218 13.24421065 26757
HULIANWANG DIGUI-60     
1 65166U 25174C   26062.13633013  .00000060  00000+0  10675-3 0  9996
2 65166  86.4924 287.8458 0001197  86.6446 273.4825 13.24421267 26756
HULIANWANG DIGUI-61     
1 65167U 25174D   26062.14393943  .00000051  00000+0  85547-4 0  9994
2 65167  86.4932 287.8657 0001150  85.2423 274.8843 13.24419808 26759
HULIANWANG DIGUI-62     
1 65168U 25174E   26062.15144999  .00000053  00000+0  90001-4 0  9994
2 65168  86.4873 287.7537 0001150  87.9782 272.1484 13.24421133 26753
HULIANWANG DIGUI-63     
1 65169U 25174F   26062.15899050  .00000057  00000+0  97579-4 0  9991
2 65169  86.4926 287.8595 0001175  85.6741 274.4527 13.24421485 26758
HULIANWANG DIGUI-64     
1 65170U 25174G   26062.16654748  .00000064  00000+0  11459-3 0  9997
2 65170  86.4884 287.7832 0001158  88.0348 272.0919 13.24421479 26759
